{
  "type": "FeatureCollection",
  "features": [
    {
      "type": "Feature",
      "properties": {
        "norad_id": 35650,
        "name": "COSMOS 2251 DEB",
        "group": "cosmos-2251-debris",
        "lat": -11.609788299490296,
        "lon": -170.88977665015847,
        "alt_km": 629.6058612471288,
        "timestamp": "2025-12-19T08:58:49.733456+00:00",
        "meta_object_name": "COSMOS 2251 DEB",
        "meta_object_id": "1993-036ANR",
        "meta_epoch": "2025-12-18T11:45:31.313664",
        "meta_mean_motion": 14.83768636,
        "meta_eccentricity": 0.00148473,
        "meta_inclination": 74.0452,
        "meta_ra_of_asc_node": 7.491,
        "meta_arg_of_pericenter": 52.0296,
        "meta_mean_anomaly": 98.5494,
        "meta_ephemeris_type": 0,
        "meta_classification_type": "U",
        "meta_norad_cat_id": 35650,
        "meta_element_set_no": 999,
        "meta_rev_at_epoch": 87719,
        "meta_bstar": 0.0014528833,
        "meta_mean_motion_dot": 0.0001204,
        "meta_mean_motion_ddot": 0,
        "tle_line1": "1 35650U 93036ANR 25352.48994576  .00012040  00000+0  14529-2 0  9998",
        "tle_line2": "2 35650  74.0452   7.4910 0014847  52.0296  98.5494 14.83768636877195"
      },
      "geometry": {
        "type": "Point",
        "coordinates": [
          -170.88977665015847,
          -11.609788299490296
        ]
      }
    },
    {
      "type": "Feature",
      "properties": {
        "norad_id": 35660,
        "name": "COSMOS 2251 DEB",
        "group": "cosmos-2251-debris",
        "lat": 41.01934675018086,
        "lon": 135.1930190058498,
        "alt_km": 731.3951126774309,
        "timestamp": "2025-12-19T08:58:49.733466+00:00",
        "meta_object_name": "COSMOS 2251 DEB",
        "meta_object_id": "1993-036APB",
        "meta_epoch": "2025-12-15T02:38:46.156416",
        "meta_mean_motion": 14.49937403,
        "meta_eccentricity": 0.00182984,
        "meta_inclination": 74.0379,
        "meta_ra_of_asc_node": 128.7781,
        "meta_arg_of_pericenter": 277.071,
        "meta_mean_anomaly": 198.1224,
        "meta_ephemeris_type": 0,
        "meta_classification_type": "U",
        "meta_norad_cat_id": 35660,
        "meta_element_set_no": 999,
        "meta_rev_at_epoch": 65905,
        "meta_bstar": 0.00040464315,
        "meta_mean_motion_dot": 1.541e-05,
        "meta_mean_motion_ddot": 0,
        "tle_line1": "1 35660U 93036APB 25349.11025644  .00001541  00000+0  40464-3 0  9998",
        "tle_line2": "2 35660  74.0379 128.7781 0018298 277.0710 198.1224 14.49937403659054"
      },
      "geometry": {
        "type": "Point",
        "coordinates": [
          135.1930190058498,
          41.01934675018086
        ]
      }
    },
    {
      "type": "Feature",
      "properties": {
        "norad_id": 35661,
        "name": "COSMOS 2251 DEB",
        "group": "cosmos-2251-debris",
        "lat": -15.236435737382282,
        "lon": -109.01526394487591,
        "alt_km": 558.1448398660514,
        "timestamp": "2025-12-19T08:58:49.733477+00:00",
        "meta_object_name": "COSMOS 2251 DEB",
        "meta_object_id": "1993-036APC",
        "meta_epoch": "2025-12-17T22:11:22.609536",
        "meta_mean_motion": 14.86648371,
        "meta_eccentricity": 0.00874008,
        "meta_inclination": 74.0141,
        "meta_ra_of_asc_node": 69.3947,
        "meta_arg_of_pericenter": 172.2755,
        "meta_mean_anomaly": 187.9796,
        "meta_ephemeris_type": 0,
        "meta_classification_type": "U",
        "meta_norad_cat_id": 35661,
        "meta_element_set_no": 999,
        "meta_rev_at_epoch": 87945,
        "meta_bstar": 0.00056862589,
        "meta_mean_motion_dot": 5.379e-05,
        "meta_mean_motion_ddot": 0,
        "tle_line1": "1 35661U 93036APC 25351.92456724  .00005379  00000+0  56863-3 0  9991",
        "tle_line2": "2 35661  74.0141  69.3947 0087400 172.2755 187.9796 14.86648371879454"
      },
      "geometry": {
        "type": "Point",
        "coordinates": [
          -109.01526394487591,
          -15.236435737382282
        ]
      }
    },
    {
      "type": "Feature",
      "properties": {
        "norad_id": 35663,
        "name": "COSMOS 2251 DEB",
        "group": "cosmos-2251-debris",
        "lat": -53.50144932952795,
        "lon": 89.08928848807733,
        "alt_km": 683.0868249183759,
        "timestamp": "2025-12-19T08:58:49.733487+00:00",
        "meta_object_name": "COSMOS 2251 DEB",
        "meta_object_id": "1993-036APE",
        "meta_epoch": "2025-12-13T02:32:21.539904",
        "meta_mean_motion": 14.65684168,
        "meta_eccentricity": 0.00063461,
        "meta_inclination": 74.0174,
        "meta_ra_of_asc_node": 123.959,
        "meta_arg_of_pericenter": 198.7091,
        "meta_mean_anomaly": 161.3846,
        "meta_ephemeris_type": 0,
        "meta_classification_type": "U",
        "meta_norad_cat_id": 35663,
        "meta_element_set_no": 999,
        "meta_rev_at_epoch": 73387,
        "meta_bstar": 0.0025042609,
        "meta_mean_motion_dot": 0.00013628,
        "meta_mean_motion_ddot": 0,
        "tle_line1": "1 35663U 93036APE 25347.10580486  .00013628  00000+0  25043-2 0  9992",
        "tle_line2": "2 35663  74.0174 123.9590 0006346 198.7091 161.3846 14.65684168733877"
      },
      "geometry": {
        "type": "Point",
        "coordinates": [
          89.08928848807733,
          -53.50144932952795
        ]
      }
    },
    {
      "type": "Feature",
      "properties": {
        "norad_id": 35667,
        "name": "COSMOS 2251 DEB",
        "group": "cosmos-2251-debris",
        "lat": -34.076603425683935,
        "lon": -41.38393509111457,
        "alt_km": 686.5118609078027,
        "timestamp": "2025-12-19T08:58:49.733497+00:00",
        "meta_object_name": "COSMOS 2251 DEB",
        "meta_object_id": "1993-036APJ",
        "meta_epoch": "2025-12-14T16:10:30.846432",
        "meta_mean_motion": 14.60047432,
        "meta_eccentricity": 0.00195944,
        "meta_inclination": 74.0556,
        "meta_ra_of_asc_node": 136.4208,
        "meta_arg_of_pericenter": 197.4569,
        "meta_mean_anomaly": 162.5926,
        "meta_ephemeris_type": 0,
        "meta_classification_type": "U",
        "meta_norad_cat_id": 35667,
        "meta_element_set_no": 999,
        "meta_rev_at_epoch": 70831,
        "meta_bstar": 0.0010671241,
        "meta_mean_motion_dot": 5.114e-05,
        "meta_mean_motion_ddot": 0,
        "tle_line1": "1 35667U 93036APJ 25348.67396813  .00005114  00000+0  10671-2 0  9990",
        "tle_line2": "2 35667  74.0556 136.4208 0019594 197.4569 162.5926 14.60047432708310"
      },
      "geometry": {
        "type": "Point",
        "coordinates": [
          -41.38393509111457,
          -34.076603425683935
        ]
      }
    },
    {
      "type": "Feature",
      "properties": {
        "norad_id": 35668,
        "name": "COSMOS 2251 DEB",
        "group": "cosmos-2251-debris",
        "lat": 59.99627335464209,
        "lon": -122.51385415792495,
        "alt_km": 696.611539302562,
        "timestamp": "2025-12-19T08:58:49.733507+00:00",
        "meta_object_name": "COSMOS 2251 DEB",
        "meta_object_id": "1993-036APK",
        "meta_epoch": "2025-12-18T08:05:19.351392",
        "meta_mean_motion": 14.64002909,
        "meta_eccentricity": 0.0083412,
        "meta_inclination": 74.0461,
        "meta_ra_of_asc_node": 209.7797,
        "meta_arg_of_pericenter": 313.6421,
        "meta_mean_anomaly": 45.7849,
        "meta_ephemeris_type": 0,
        "meta_classification_type": "U",
        "meta_norad_cat_id": 35668,
        "meta_element_set_no": 999,
        "meta_rev_at_epoch": 87729,
        "meta_bstar": 0.00019067557,
        "meta_mean_motion_dot": 1.017e-05,
        "meta_mean_motion_ddot": 0,
        "tle_line1": "1 35668U 93036APK 25352.33702953  .00001017  00000+0  19068-3 0  9993",
        "tle_line2": "2 35668  74.0461 209.7797 0083412 313.6421  45.7849 14.64002909877296"
      },
      "geometry": {
        "type": "Point",
        "coordinates": [
          -122.51385415792495,
          59.99627335464209
        ]
      }
    },
    {
      "type": "Feature",
      "properties": {
        "norad_id": 35669,
        "name": "COSMOS 2251 DEB",
        "group": "cosmos-2251-debris",
        "lat": 15.889210592609682,
        "lon": 153.2973850922069,
        "alt_km": 1169.9643105965088,
        "timestamp": "2025-12-19T08:58:49.733517+00:00",
        "meta_object_name": "COSMOS 2251 DEB",
        "meta_object_id": "1993-036APL",
        "meta_epoch": "2025-12-18T02:49:24.146112",
        "meta_mean_motion": 13.57165784,
        "meta_eccentricity": 0.03877468,
        "meta_inclination": 73.86,
        "meta_ra_of_asc_node": 150.6186,
        "meta_arg_of_pericenter": 261.487,
        "meta_mean_anomaly": 94.2128,
        "meta_ephemeris_type": 0,
        "meta_classification_type": "U",
        "meta_norad_cat_id": 35669,
        "meta_element_set_no": 999,
        "meta_rev_at_epoch": 60862,
        "meta_bstar": 0.00072975902,
        "meta_mean_motion_dot": 8.23e-06,
        "meta_mean_motion_ddot": 0,
        "tle_line1": "1 35669U 93036APL 25352.11764058  .00000823  00000+0  72976-3 0  9995",
        "tle_line2": "2 35669  73.8600 150.6186 0387746 261.4870  94.2128 13.57165784608620"
      },
      "geometry": {
        "type": "Point",
        "coordinates": [
          153.2973850922069,
          15.889210592609682
        ]
      }
    }
  ]
}